{
  "type": "FeatureCollection",
  "features": [
    {
      "type": "Feature",
      "properties": {
        "norad_id": 30656,
        "name": "FENGYUN 1C DEB",
        "group": "fengyun-1c-debris",
        "lat": -76.72349968565085,
        "lon": -149.994432697406,
        "alt_km": 765.892178616763,
        "timestamp": "2025-12-19T04:59:48.583908+00:00",
        "meta_object_name": "FENGYUN 1C DEB",
        "meta_object_id": "1999-025APN",
        "meta_epoch": "2025-12-18T04:26:51.706752",
        "meta_mean_motion": 14.45417524,
        "meta_eccentricity": 0.00301395,
        "meta_inclination": 99.0175,
        "meta_ra_of_asc_node": 166.62,
        "meta_arg_of_pericenter": 69.9036,
        "meta_mean_anomaly": 290.5393,
        "meta_ephemeris_type": 0,
        "meta_classification_type": "U",
        "meta_norad_cat_id": 30656,
        "meta_element_set_no": 999,
        "meta_rev_at_epoch": 97164,
        "meta_bstar": 0.002079445,
        "meta_mean_motion_dot": 7.317e-05,
        "meta_mean_motion_ddot": 0,
        "tle_line1": "1 30656U 99025APN 25352.18532068  .00007317  00000+0  20794-2 0  9996",
        "tle_line2": "2 30656  99.0175 166.6200 0030139  69.9036 290.5393 14.45417524971648"
      },
      "geometry": {
        "type": "Point",
        "coordinates": [
          -149.994432697406,
          -76.72349968565085
        ]
      }
    },
    {
      "type": "Feature",
      "properties": {
        "norad_id": 30657,
        "name": "FENGYUN 1C DEB",
        "group": "fengyun-1c-debris",
        "lat": -58.36019946603797,
        "lon": -103.19459187533913,
        "alt_km": 768.7078672118296,
        "timestamp": "2025-12-19T04:59:48.583918+00:00",
        "meta_object_name": "FENGYUN 1C DEB",
        "meta_object_id": "1999-025APP",
        "meta_epoch": "2025-12-18T18:28:46.006752",
        "meta_mean_motion": 14.38670231,
        "meta_eccentricity": 0.00163331,
        "meta_inclination": 98.8348,
        "meta_ra_of_asc_node": 90.9752,
        "meta_arg_of_pericenter": 324.6709,
        "meta_mean_anomaly": 166.5825,
        "meta_ephemeris_type": 0,
        "meta_classification_type": "U",
        "meta_norad_cat_id": 30657,
        "meta_element_set_no": 999,
        "meta_rev_at_epoch": 97319,
        "meta_bstar": 0.0016163942,
        "meta_mean_motion_dot": 4.919e-05,
        "meta_mean_motion_ddot": 0,
        "tle_line1": "1 30657U 99025APP 25352.76997693  .00004919  00000+0  16164-2 0  9991",
        "tle_line2": "2 30657  98.8348  90.9752 0016333 324.6709 166.5825 14.38670231973199"
      },
      "geometry": {
        "type": "Point",
        "coordinates": [
          -103.19459187533913,
          -58.36019946603797
        ]
      }
    },
    {
      "type": "Feature",
      "properties": {
        "norad_id": 30658,
        "name": "FENGYUN 1C DEB",
        "group": "fengyun-1c-debris",
        "lat": 4.00137845492546,
        "lon": 24.432124548348828,
        "alt_km": 1061.6735431214847,
        "timestamp": "2025-12-19T04:59:48.583928+00:00",
        "meta_object_name": "FENGYUN 1C DEB",
        "meta_object_id": "1999-025APQ",
        "meta_epoch": "2025-12-18T13:23:50.214912",
        "meta_mean_motion": 13.87228138,
        "meta_eccentricity": 0.01842986,
        "meta_inclination": 98.4389,
        "meta_ra_of_asc_node": 24.4397,
        "meta_arg_of_pericenter": 211.7114,
        "meta_mean_anomaly": 147.2839,
        "meta_ephemeris_type": 0,
        "meta_classification_type": "U",
        "meta_norad_cat_id": 30658,
        "meta_element_set_no": 999,
        "meta_rev_at_epoch": 94765,
        "meta_bstar": 0.001331943,
        "meta_mean_motion_dot": 1.751e-05,
        "meta_mean_motion_ddot": 0,
        "tle_line1": "1 30658U 99025APQ 25352.55822008  .00001751  00000+0  13319-2 0  9996",
        "tle_line2": "2 30658  98.4389  24.4397 0184298 211.7114 147.2839 13.87228138947651"
      },
      "geometry": {
        "type": "Point",
        "coordinates": [
          24.432124548348828,
          4.00137845492546
        ]
      }
    },
    {
      "type": "Feature",
      "properties": {
        "norad_id": 30660,
        "name": "FENGYUN 1C DEB",
        "group": "fengyun-1c-debris",
        "lat": -81.81730336437089,
        "lon": 174.2913208832382,
        "alt_km": 541.8098547508835,
        "timestamp": "2025-12-19T04:59:48.583939+00:00",
        "meta_object_name": "FENGYUN 1C DEB",
        "meta_object_id": "1999-025APS",
        "meta_epoch": "2025-12-18T05:26:39.431328",
        "meta_mean_motion": 14.87602273,
        "meta_eccentricity": 0.01366618,
        "meta_inclination": 98.1395,
        "meta_ra_of_asc_node": 88.8279,
        "meta_arg_of_pericenter": 316.5148,
        "meta_mean_anomaly": 102.9858,
        "meta_ephemeris_type": 0,
        "meta_classification_type": "U",
        "meta_norad_cat_id": 30660,
        "meta_element_set_no": 999,
        "meta_rev_at_epoch": 866,
        "meta_bstar": 0.00054046224,
        "meta_mean_motion_dot": 5.769e-05,
        "meta_mean_motion_ddot": 0,
        "tle_line1": "1 30660U 99025APS 25352.22684527  .00005769  00000+0  54046-3 0  9991",
        "tle_line2": "2 30660  98.1395  88.8279 0136661 316.5148 102.9858 14.87602273  8668"
      },
      "geometry": {
        "type": "Point",
        "coordinates": [
          174.2913208832382,
          -81.81730336437089
        ]
      }
    },
    {
      "type": "Feature",
      "properties": {
        "norad_id": 30661,
        "name": "FENGYUN 1C DEB",
        "group": "fengyun-1c-debris",
        "lat": -36.84508453944432,
        "lon": -17.8344059707639,
        "alt_km": 930.2675722987897,
        "timestamp": "2025-12-19T04:59:48.583949+00:00",
        "meta_object_name": "FENGYUN 1C DEB",
        "meta_object_id": "1999-025APT",
        "meta_epoch": "2025-12-17T18:11:08.602944",
        "meta_mean_motion": 14.21145209,
        "meta_eccentricity": 0.01445688,
        "meta_inclination": 99.4871,
        "meta_ra_of_asc_node": 167.8065,
        "meta_arg_of_pericenter": 31.5269,
        "meta_mean_anomaly": 329.4468,
        "meta_ephemeris_type": 0,
        "meta_classification_type": "U",
        "meta_norad_cat_id": 30661,
        "meta_element_set_no": 999,
        "meta_rev_at_epoch": 97973,
        "meta_bstar": 0.00010203451,
        "meta_mean_motion_dot": 1.96e-06,
        "meta_mean_motion_ddot": 0,
        "tle_line1": "1 30661U 99025APT 25351.75773846  .00000196  00000+0  10203-3 0  9998",
        "tle_line2": "2 30661  99.4871 167.8065 0144568  31.5269 329.4468 14.21145209979733"
      },
      "geometry": {
        "type": "Point",
        "coordinates": [
          -17.8344059707639,
          -36.84508453944432
        ]
      }
    },
    {
      "type": "Feature",
      "properties": {
        "norad_id": 30662,
        "name": "FENGYUN 1C DEB",
        "group": "fengyun-1c-debris",
        "lat": -64.06971292653715,
        "lon": 68.79948634403563,
        "alt_km": 806.5834580373357,
        "timestamp": "2025-12-19T04:59:48.583960+00:00",
        "meta_object_name": "FENGYUN 1C DEB",
        "meta_object_id": "1999-025APU",
        "meta_epoch": "2025-12-17T02:47:53.975616",
        "meta_mean_motion": 14.2238731,
        "meta_eccentricity": 0.00333112,
        "meta_inclination": 99.053,
        "meta_ra_of_asc_node": 47.5109,
        "meta_arg_of_pericenter": 258.3821,
        "meta_mean_anomaly": 131.5027,
        "meta_ephemeris_type": 0,
        "meta_classification_type": "U",
        "meta_norad_cat_id": 30662,
        "meta_element_set_no": 999,
        "meta_rev_at_epoch": 96701,
        "meta_bstar": 0.0012023141,
        "meta_mean_motion_dot": 2.645e-05,
        "meta_mean_motion_ddot": 0,
        "tle_line1": "1 30662U 99025APU 25351.11659694  .00002645  00000+0  12023-2 0  9995",
        "tle_line2": "2 30662  99.0530  47.5109 0033311 258.3821 131.5027 14.22387310967014"
      },
      "geometry": {
        "type": "Point",
        "coordinates": [
          68.79948634403563,
          -64.06971292653715
        ]
      }
    },
    {
      "type": "Feature",
      "properties": {
        "norad_id": 30663,
        "name": "FENGYUN 1C DEB",
        "group": "fengyun-1c-debris",
        "lat": 13.72144957483169,
        "lon": -92.78596621292873,
        "alt_km": 1285.8131784348925,
        "timestamp": "2025-12-19T04:59:48.583970+00:00",
        "meta_object_name": "FENGYUN 1C DEB",
        "meta_object_id": "1999-025APV",
        "meta_epoch": "2025-12-18T05:19:50.710080",
        "meta_mean_motion": 13.23160005,
        "meta_eccentricity": 0.06485773,
        "meta_inclination": 99.3034,
        "meta_ra_of_asc_node": 268.6217,
        "meta_arg_of_pericenter": 123.2469,
        "meta_mean_anomaly": 243.2534,
        "meta_ephemeris_type": 0,
        "meta_classification_type": "U",
        "meta_norad_cat_id": 30663,
        "meta_element_set_no": 999,
        "meta_rev_at_epoch": 89120,
        "meta_bstar": 0.0017424919,
        "meta_mean_motion_dot": 2.247e-05,
        "meta_mean_motion_ddot": 0,
        "tle_line1": "1 30663U 99025APV 25352.22211470  .00002247  00000+0  17425-2 0  9994",
        "tle_line2": "2 30663  99.3034 268.6217 0648577 123.2469 243.2534 13.23160005891208"
      },
      "geometry": {
        "type": "Point",
        "coordinates": [
          -92.78596621292873,
          13.72144957483169
        ]
      }
    }
  ]
}